[
  {
    "OBJECT_NAME": "STARLINK-6194",
    "OBJECT_ID": "23088AF",
    "EPOCH": "2025-11-11T05:04:25.373856",
    "MEAN_MOTION": 15.02533911,
    "ECCENTRICITY": 0.0001047,
    "INCLINATION": 43.0036,
    "RA_OF_ASC_NODE": 18.5735,
    "ARG_OF_PERICENTER": 254.7865,
    "MEAN_ANOMALY": 105.2862,
    "EPHEMERIS_TYPE": 0,
    "CLASSIFICATION_TYPE": "U",
    "NORAD_CAT_ID": 57077,
    "ELEMENT_SET_NO": 999,
    "REV_AT_EPOCH": 13286,
    "BSTAR": 7.0053000000000005e-06,
    "MEAN_MOTION_DOT": -1.09e-06,
    "MEAN_MOTION_DDOT": 0.0,
    "TLE_LINE1": "1 57077U 23088AF  25315.21140479 -.00000109  00000+0  70053-5 0  9991",
    "TLE_LINE2": "2 57077  43.0036  18.5735 0001047 254.7865 105.2862 15.02533911132866",
    "COMMENT": "Grouped by shell and plane from TLE"
  },
  {
    "OBJECT_NAME": "STARLINK-6246",
    "OBJECT_ID": "23088AG",
    "EPOCH": "2025-11-11T05:17:13.024896",
    "MEAN_MOTION": 15.02545709,
    "ECCENTRICITY": 0.0001508,
    "INCLINATION": 43.0034,
    "RA_OF_ASC_NODE": 18.6378,
    "ARG_OF_PERICENTER": 268.7196,
    "MEAN_ANOMALY": 91.3473,
    "EPHEMERIS_TYPE": 0,
    "CLASSIFICATION_TYPE": "U",
    "NORAD_CAT_ID": 57078,
    "ELEMENT_SET_NO": 999,
    "REV_AT_EPOCH": 13252,
    "BSTAR": 0.00050147,
    "MEAN_MOTION_DOT": 6.578e-05,
    "MEAN_MOTION_DDOT": 0.0,
    "TLE_LINE1": "1 57078U 23088AG  25315.22028964  .00006578  00000+0  50147-3 0  9992",
    "TLE_LINE2": "2 57078  43.0034  18.6378 0001508 268.7196  91.3473 15.02545709132527",
    "COMMENT": "Grouped by shell and plane from TLE"
  },
  {
    "OBJECT_NAME": "STARLINK-6245",
    "OBJECT_ID": "23088AH",
    "EPOCH": "2025-11-11T04:48:26.345952",
    "MEAN_MOTION": 15.02534751,
    "ECCENTRICITY": 5.45e-05,
    "INCLINATION": 43.0024,
    "RA_OF_ASC_NODE": 18.4893,
    "ARG_OF_PERICENTER": 286.7162,
    "MEAN_ANOMALY": 73.3621,
    "EPHEMERIS_TYPE": 0,
    "CLASSIFICATION_TYPE": "U",
    "NORAD_CAT_ID": 57079,
    "ELEMENT_SET_NO": 999,
    "REV_AT_EPOCH": 13269,
    "BSTAR": 5.7317e-05,
    "MEAN_MOTION_DOT": 5.71e-06,
    "MEAN_MOTION_DDOT": 0.0,
    "TLE_LINE1": "1 57079U 23088AH  25315.20030493  .00000571  00000+0  57317-4 0  9995",
    "TLE_LINE2": "2 57079  43.0024  18.4893 0000545 286.7162  73.3621 15.02534751132698",
    "COMMENT": "Grouped by shell and plane from TLE"
  },
  {
    "OBJECT_NAME": "STARLINK-6243",
    "OBJECT_ID": "23088AJ",
    "EPOCH": "2025-11-11T05:09:13.070304",
    "MEAN_MOTION": 15.02535937,
    "ECCENTRICITY": 0.0001027,
    "INCLINATION": 43.0038,
    "RA_OF_ASC_NODE": 18.6052,
    "ARG_OF_PERICENTER": 278.3269,
    "MEAN_ANOMALY": 81.7457,
    "EPHEMERIS_TYPE": 0,
    "CLASSIFICATION_TYPE": "U",
    "NORAD_CAT_ID": 57080,
    "ELEMENT_SET_NO": 999,
    "REV_AT_EPOCH": 13252,
    "BSTAR": 8.7383e-05,
    "MEAN_MOTION_DOT": 9.77e-06,
    "MEAN_MOTION_DDOT": 0.0,
    "TLE_LINE1": "1 57080U 23088AJ  25315.21473461  .00000977  00000+0  87383-4 0  9990",
    "TLE_LINE2": "2 57080  43.0038  18.6052 0001027 278.3269  81.7457 15.02535937132524",
    "COMMENT": "Grouped by shell and plane from TLE"
  },
  {
    "OBJECT_NAME": "STARLINK-6184",
    "OBJECT_ID": "23088AK",
    "EPOCH": "2025-11-11T04:43:38.549280",
    "MEAN_MOTION": 15.02534882,
    "ECCENTRICITY": 0.0001147,
    "INCLINATION": 43.0029,
    "RA_OF_ASC_NODE": 18.4644,
    "ARG_OF_PERICENTER": 256.3042,
    "MEAN_ANOMALY": 103.7672,
    "EPHEMERIS_TYPE": 0,
    "CLASSIFICATION_TYPE": "U",
    "NORAD_CAT_ID": 57081,
    "ELEMENT_SET_NO": 999,
    "REV_AT_EPOCH": 13269,
    "BSTAR": 3.0823e-05,
    "MEAN_MOTION_DOT": 2.13e-06,
    "MEAN_MOTION_DDOT": 0.0,
    "TLE_LINE1": "1 57081U 23088AK  25315.19697395  .00000213  00000+0  30823-4 0  9992",
    "TLE_LINE2": "2 57081  43.0029  18.4644 0001147 256.3042 103.7672 15.02534882132698",
    "COMMENT": "Grouped by shell and plane from TLE"
  },
  {
    "OBJECT_NAME": "STARLINK-6248",
    "OBJECT_ID": "23088AL",
    "EPOCH": "2025-11-11T04:53:13.701984",
    "MEAN_MOTION": 15.02543167,
    "ECCENTRICITY": 0.0001388,
    "INCLINATION": 43.0051,
    "RA_OF_ASC_NODE": 18.5191,
    "ARG_OF_PERICENTER": 272.023,
    "MEAN_ANOMALY": 88.0453,
    "EPHEMERIS_TYPE": 0,
    "CLASSIFICATION_TYPE": "U",
    "NORAD_CAT_ID": 57082,
    "ELEMENT_SET_NO": 999,
    "REV_AT_EPOCH": 13269,
    "BSTAR": 0.00016392999999999998,
    "MEAN_MOTION_DOT": 2.012e-05,
    "MEAN_MOTION_DDOT": 0.0,
    "TLE_LINE1": "1 57082U 23088AL  25315.20363081  .00002012  00000+0  16393-3 0  9991",
    "TLE_LINE2": "2 57082  43.0051  18.5191 0001388 272.0230  88.0453 15.02543167132691",
    "COMMENT": "Grouped by shell and plane from TLE"
  },
  {
    "OBJECT_NAME": "STARLINK-6253",
    "OBJECT_ID": "23088AM",
    "EPOCH": "2025-11-11T04:32:27.214368",
    "MEAN_MOTION": 15.02538164,
    "ECCENTRICITY": 0.0001199,
    "INCLINATION": 43.0025,
    "RA_OF_ASC_NODE": 18.4041,
    "ARG_OF_PERICENTER": 270.3955,
    "MEAN_ANOMALY": 89.675,
    "EPHEMERIS_TYPE": 0,
    "CLASSIFICATION_TYPE": "U",
    "NORAD_CAT_ID": 57083,
    "ELEMENT_SET_NO": 999,
    "REV_AT_EPOCH": 13269,
    "BSTAR": 0.0,
    "MEAN_MOTION_DOT": -2.98e-06,
    "MEAN_MOTION_DDOT": 0.0,
    "TLE_LINE1": "1 57083U 23088AM  25315.18920387 -.00000298  00000+0 -70013-5 0  9994",
    "TLE_LINE2": "2 57083  43.0025  18.4041 0001199 270.3955  89.6750 15.02538164132699",
    "COMMENT": "Grouped by shell and plane from TLE"
  },
  {
    "OBJECT_NAME": "STARLINK-6240",
    "OBJECT_ID": "23088AN",
    "EPOCH": "2025-11-11T04:45:12.071232",
    "MEAN_MOTION": 15.02561576,
    "ECCENTRICITY": 0.0001273,
    "INCLINATION": 43.0075,
    "RA_OF_ASC_NODE": 18.4747,
    "ARG_OF_PERICENTER": 261.4356,
    "MEAN_ANOMALY": 98.6342,
    "EPHEMERIS_TYPE": 0,
    "CLASSIFICATION_TYPE": "U",
    "NORAD_CAT_ID": 57084,
    "ELEMENT_SET_NO": 999,
    "REV_AT_EPOCH": 13269,
    "BSTAR": 0.00027904000000000004,
    "MEAN_MOTION_DOT": 3.57e-05,
    "MEAN_MOTION_DDOT": 0.0,
    "TLE_LINE1": "1 57084U 23088AN  25315.19805638  .00003570  00000+0  27904-3 0  9990",
    "TLE_LINE2": "2 57084  43.0075  18.4747 0001273 261.4356  98.6342 15.02561576132697",
    "COMMENT": "Grouped by shell and plane from TLE"
  },
  {
    "OBJECT_NAME": "STARLINK-6232",
    "OBJECT_ID": "23088AP",
    "EPOCH": "2025-11-11T06:01:47.279424",
    "MEAN_MOTION": 15.02537056,
    "ECCENTRICITY": 0.0001159,
    "INCLINATION": 43.0034,
    "RA_OF_ASC_NODE": 18.0109,
    "ARG_OF_PERICENTER": 260.858,
    "MEAN_ANOMALY": 99.2131,
    "EPHEMERIS_TYPE": 0,
    "CLASSIFICATION_TYPE": "U",
    "NORAD_CAT_ID": 57085,
    "ELEMENT_SET_NO": 999,
    "REV_AT_EPOCH": 13270,
    "BSTAR": 4.7006e-06,
    "MEAN_MOTION_DOT": -1.4e-06,
    "MEAN_MOTION_DDOT": 0.0,
    "TLE_LINE1": "1 57085U 23088AP  25315.25124166 -.00000140  00000+0  47006-5 0  9996",
    "TLE_LINE2": "2 57085  43.0034  18.0109 0001159 260.8580  99.2131 15.02537056132707",
    "COMMENT": "Grouped by shell and plane from TLE"
  },
  {
    "OBJECT_NAME": "STARLINK-6247",
    "OBJECT_ID": "23088AQ",
    "EPOCH": "2025-11-11T04:40:26.593536",
    "MEAN_MOTION": 15.0253477,
    "ECCENTRICITY": 0.0001077,
    "INCLINATION": 43.0049,
    "RA_OF_ASC_NODE": 18.4485,
    "ARG_OF_PERICENTER": 253.2587,
    "MEAN_ANOMALY": 106.8137,
    "EPHEMERIS_TYPE": 0,
    "CLASSIFICATION_TYPE": "U",
    "NORAD_CAT_ID": 57086,
    "ELEMENT_SET_NO": 999,
    "REV_AT_EPOCH": 13269,
    "BSTAR": 4.1968e-05,
    "MEAN_MOTION_DOT": 3.63e-06,
    "MEAN_MOTION_DDOT": 0.0,
    "TLE_LINE1": "1 57086U 23088AQ  25315.19475224  .00000363  00000+0  41968-4 0  9990",
    "TLE_LINE2": "2 57086  43.0049  18.4485 0001077 253.2587 106.8137 15.02534770132696",
    "COMMENT": "Grouped by shell and plane from TLE"
  },
  {
    "OBJECT_NAME": "STARLINK-6251",
    "OBJECT_ID": "23088AR",
    "EPOCH": "2025-11-11T04:21:16.039296",
    "MEAN_MOTION": 15.02535036,
    "ECCENTRICITY": 0.0001145,
    "INCLINATION": 43.0042,
    "RA_OF_ASC_NODE": 18.3495,
    "ARG_OF_PERICENTER": 278.4147,
    "MEAN_ANOMALY": 81.6565,
    "EPHEMERIS_TYPE": 0,
    "CLASSIFICATION_TYPE": "U",
    "NORAD_CAT_ID": 57087,
    "ELEMENT_SET_NO": 999,
    "REV_AT_EPOCH": 13269,
    "BSTAR": 3.8669e-05,
    "MEAN_MOTION_DOT": 3.19e-06,
    "MEAN_MOTION_DDOT": 0.0,
    "TLE_LINE1": "1 57087U 23088AR  25315.18143564  .00000319  00000+0  38669-4 0  9994",
    "TLE_LINE2": "2 57087  43.0042  18.3495 0001145 278.4147  81.6565 15.02535036132698",
    "COMMENT": "Grouped by shell and plane from TLE"
  },
  {
    "OBJECT_NAME": "STARLINK-6257",
    "OBJECT_ID": "23088AS",
    "EPOCH": "2025-11-11T04:35:37.867200",
    "MEAN_MOTION": 15.02547386,
    "ECCENTRICITY": 0.0001369,
    "INCLINATION": 43.0058,
    "RA_OF_ASC_NODE": 18.4246,
    "ARG_OF_PERICENTER": 272.2464,
    "MEAN_ANOMALY": 87.8221,
    "EPHEMERIS_TYPE": 0,
    "CLASSIFICATION_TYPE": "U",
    "NORAD_CAT_ID": 57088,
    "ELEMENT_SET_NO": 999,
    "REV_AT_EPOCH": 13269,
    "BSTAR": 0.00013644999999999998,
    "MEAN_MOTION_DOT": 1.64e-05,
    "MEAN_MOTION_DDOT": 0.0,
    "TLE_LINE1": "1 57088U 23088AS  25315.19141050  .00001640  00000+0  13645-3 0  9998",
    "TLE_LINE2": "2 57088  43.0058  18.4246 0001369 272.2464  87.8221 15.02547386132691",
    "COMMENT": "Grouped by shell and plane from TLE"
  },
  {
    "OBJECT_NAME": "STARLINK-6259",
    "OBJECT_ID": "23088AT",
    "EPOCH": "2025-11-11T04:06:52.390944",
    "MEAN_MOTION": 15.02543784,
    "ECCENTRICITY": 0.0001094,
    "INCLINATION": 43.0049,
    "RA_OF_ASC_NODE": 18.2696,
    "ARG_OF_PERICENTER": 256.7581,
    "MEAN_ANOMALY": 103.3139,
    "EPHEMERIS_TYPE": 0,
    "CLASSIFICATION_TYPE": "U",
    "NORAD_CAT_ID": 57089,
    "ELEMENT_SET_NO": 999,
    "REV_AT_EPOCH": 13269,
    "BSTAR": 0.00021543000000000002,
    "MEAN_MOTION_DOT": 2.708e-05,
    "MEAN_MOTION_DDOT": 0.0,
    "TLE_LINE1": "1 57089U 23088AT  25315.17143971  .00002708  00000+0  21543-3 0  9993",
    "TLE_LINE2": "2 57089  43.0049  18.2696 0001094 256.7581 103.3139 15.02543784132691",
    "COMMENT": "Grouped by shell and plane from TLE"
  }
]